EUTELSAT 7A             
1 28187U 04008A   26003.48256631  .00000101  00000+0  00000+0 0  9994
2 28187   5.4128  73.9984 0001469 236.5908 187.0197  1.00270854 79704
EUTELSAT HOTBIRD 13B    
1 29270U 06032A   26003.32463914  .00000158  00000+0  00000+0 0  9996
2 29270   1.2364  84.1668 0003600 203.1912 325.5401  1.00272640 45650
EUTELSAT HOTBIRD 13C    
1 33459U 08065A   26003.45087493 -.00000282  00000+0  00000+0 0  9995
2 33459   2.5274  81.1745 0003731 204.0067 289.8928  1.00269189 45691
EUTELSAT 36B            
1 36101U 09065A   26003.47089506  .00000116  00000+0  00000+0 0  9997
2 36101   0.0795  58.1794 0005803 223.5902  41.3505  1.00268806 59055
EUTELSAT KA-SAT 9A      
1 37258U 10069A   26003.36017193  .00000065  00000+0  00000+0 0  9991
2 37258   0.0509 338.2021 0001633 201.1583  62.2773  1.00271766 42354
EUTELSAT 7 WEST A       
1 37816U 11051A   26003.37114270 -.00000057  00000+0  00000+0 0  9990
2 37816   0.0639  13.9053 0005029 225.2561 350.1287  1.00271288 52221
EUTELSAT 16A            
1 37836U 11057A   26003.32134578  .00000107  00000+0  00000+0 0  9991
2 37836   0.0565  12.3102 0005495 271.7467 310.5711  1.00269639  5673
